CCSDS_OMM_VERS = 2.0
CREATION_DATE  = 
ORIGINATOR     = 

OBJECT_NAME    = SDA_1668
OBJECT_ID      = 2025-230E
CENTER_NAME    = EARTH
REF_FRAME      = TEME
TIME_SYSTEM    = UTC
MEAN_ELEMENT_THEORY = SGP/SGP4

EPOCH          = 2025-11-03T18:46:50.237760
MEAN_MOTION    = 13.85467881
ECCENTRICITY   = .0004967
INCLINATION    = 81.3013
RA_OF_ASC_NODE = 60.7178
ARG_OF_PERICENTER = 109.4628
MEAN_ANOMALY   = 250.7067

EPHEMERIS_TYPE = 0
CLASSIFICATION_TYPE = U
NORAD_CAT_ID   = 65978
ELEMENT_SET_NO = 999
REV_AT_EPOCH   = 261
BSTAR          = .18457E-3
MEAN_MOTION_DOT = .222E-5
MEAN_MOTION_DDOT = 0

CCSDS_OMM_VERS = 2.0
CREATION_DATE  = 
ORIGINATOR     = 

OBJECT_NAME    = SDA_1669
OBJECT_ID      = 2025-230F
CENTER_NAME    = EARTH
REF_FRAME      = TEME
TIME_SYSTEM    = UTC
MEAN_ELEMENT_THEORY = SGP/SGP4

EPOCH          = 2025-11-03T18:51:22.531680
MEAN_MOTION    = 13.85234431
ECCENTRICITY   = .0005084
INCLINATION    = 81.3015
RA_OF_ASC_NODE = 60.7225
ARG_OF_PERICENTER = 96.9299
MEAN_ANOMALY   = 263.2437

EPHEMERIS_TYPE = 0
CLASSIFICATION_TYPE = U
NORAD_CAT_ID   = 65979
ELEMENT_SET_NO = 999
REV_AT_EPOCH   = 261
BSTAR          = .1592E-3
MEAN_MOTION_DOT = .193E-5
MEAN_MOTION_DDOT = 0

CCSDS_OMM_VERS = 2.0
CREATION_DATE  = 
ORIGINATOR     = 

OBJECT_NAME    = SDA_1670
OBJECT_ID      = 2025-230G
CENTER_NAME    = EARTH
REF_FRAME      = TEME
TIME_SYSTEM    = UTC
MEAN_ELEMENT_THEORY = SGP/SGP4

EPOCH          = 2025-11-03T18:59:37.898304
MEAN_MOTION    = 13.84811630
ECCENTRICITY   = .0003665
INCLINATION    = 81.2993
RA_OF_ASC_NODE = 60.7268
ARG_OF_PERICENTER = 71.5985
MEAN_ANOMALY   = 288.5571

EPHEMERIS_TYPE = 0
CLASSIFICATION_TYPE = U
NORAD_CAT_ID   = 65980
ELEMENT_SET_NO = 999
REV_AT_EPOCH   = 261
BSTAR          = .18943E-3
MEAN_MOTION_DOT = .225E-5
MEAN_MOTION_DDOT = 0

CCSDS_OMM_VERS = 2.0
CREATION_DATE  = 
ORIGINATOR     = 

OBJECT_NAME    = SDA_1671
OBJECT_ID      = 2025-230H
CENTER_NAME    = EARTH
REF_FRAME      = TEME
TIME_SYSTEM    = UTC
MEAN_ELEMENT_THEORY = SGP/SGP4

EPOCH          = 2025-11-03T18:48:53.736192
MEAN_MOTION    = 13.85361163
ECCENTRICITY   = .0005023
INCLINATION    = 81.3019
RA_OF_ASC_NODE = 60.7207
ARG_OF_PERICENTER = 103.6780
MEAN_ANOMALY   = 256.4937

EPHEMERIS_TYPE = 0
CLASSIFICATION_TYPE = U
NORAD_CAT_ID   = 65981
ELEMENT_SET_NO = 999
REV_AT_EPOCH   = 261
BSTAR          = .13382E-3
MEAN_MOTION_DOT = .164E-5
MEAN_MOTION_DDOT = 0

CCSDS_OMM_VERS = 2.0
CREATION_DATE  = 
ORIGINATOR     = 

OBJECT_NAME    = SDA_1672
OBJECT_ID      = 2025-230J
CENTER_NAME    = EARTH
REF_FRAME      = TEME
TIME_SYSTEM    = UTC
MEAN_ELEMENT_THEORY = SGP/SGP4

EPOCH          = 2025-11-03T18:56:50.615808
MEAN_MOTION    = 13.84954487
ECCENTRICITY   = .0004318
INCLINATION    = 81.3026
RA_OF_ASC_NODE = 60.7308
ARG_OF_PERICENTER = 77.0450
MEAN_ANOMALY   = 283.1189

EPHEMERIS_TYPE = 0
CLASSIFICATION_TYPE = U
NORAD_CAT_ID   = 65982
ELEMENT_SET_NO = 999
REV_AT_EPOCH   = 261
BSTAR          = .19896E-3
MEAN_MOTION_DOT = .237E-5
MEAN_MOTION_DDOT = 0

CCSDS_OMM_VERS = 2.0
CREATION_DATE  = 
ORIGINATOR     = 

OBJECT_NAME    = SDA_1673
OBJECT_ID      = 2025-230K
CENTER_NAME    = EARTH
REF_FRAME      = TEME
TIME_SYSTEM    = UTC
MEAN_ELEMENT_THEORY = SGP/SGP4

EPOCH          = 2025-11-03T18:45:09.465984
MEAN_MOTION    = 13.85554030
ECCENTRICITY   = .0005097
INCLINATION    = 81.3025
RA_OF_ASC_NODE = 60.7216
ARG_OF_PERICENTER = 114.0041
MEAN_ANOMALY   = 246.1650

EPHEMERIS_TYPE = 0
CLASSIFICATION_TYPE = U
NORAD_CAT_ID   = 65983
ELEMENT_SET_NO = 999
REV_AT_EPOCH   = 261
BSTAR          = .17634E-3
MEAN_MOTION_DOT = .213E-5
MEAN_MOTION_DDOT = 0

CCSDS_OMM_VERS = 2.0
CREATION_DATE  = 
ORIGINATOR     = 

OBJECT_NAME    = SDA_1674
OBJECT_ID      = 2025-230L
CENTER_NAME    = EARTH
REF_FRAME      = TEME
TIME_SYSTEM    = UTC
MEAN_ELEMENT_THEORY = SGP/SGP4

EPOCH          = 2025-11-03T18:48:14.190912
MEAN_MOTION    = 13.85395791
ECCENTRICITY   = .0004968
INCLINATION    = 81.3016
RA_OF_ASC_NODE = 60.7195
ARG_OF_PERICENTER = 105.5333
MEAN_ANOMALY   = 254.6373

EPHEMERIS_TYPE = 0
CLASSIFICATION_TYPE = U
NORAD_CAT_ID   = 65984
ELEMENT_SET_NO = 999
REV_AT_EPOCH   = 261
BSTAR          = .15215E-3
MEAN_MOTION_DOT = .185E-5
MEAN_MOTION_DDOT = 0

CCSDS_OMM_VERS = 2.0
CREATION_DATE  = 
ORIGINATOR     = 

OBJECT_NAME    = SDA_1675
OBJECT_ID      = 2025-230M
CENTER_NAME    = EARTH
REF_FRAME      = TEME
TIME_SYSTEM    = UTC
MEAN_ELEMENT_THEORY = SGP/SGP4

EPOCH          = 2025-11-03T17:17:16.480032
MEAN_MOTION    = 13.84725067
ECCENTRICITY   = .0003492
INCLINATION    = 81.2993
RA_OF_ASC_NODE = 60.7954
ARG_OF_PERICENTER = 66.3548
MEAN_ANOMALY   = 293.7975

EPHEMERIS_TYPE = 0
CLASSIFICATION_TYPE = U
NORAD_CAT_ID   = 65985
ELEMENT_SET_NO = 999
REV_AT_EPOCH   = 260
BSTAR          = .2239E-3
MEAN_MOTION_DOT = .264E-5
MEAN_MOTION_DDOT = 0

CCSDS_OMM_VERS = 2.0
CREATION_DATE  = 
ORIGINATOR     = 

OBJECT_NAME    = SDA_1676
OBJECT_ID      = 2025-230N
CENTER_NAME    = EARTH
REF_FRAME      = TEME
TIME_SYSTEM    = UTC
MEAN_ELEMENT_THEORY = SGP/SGP4

EPOCH          = 2025-11-03T17:20:11.940288
MEAN_MOTION    = 13.84574563
ECCENTRICITY   = .0002819
INCLINATION    = 81.3024
RA_OF_ASC_NODE = 60.8036
ARG_OF_PERICENTER = 58.2435
MEAN_ANOMALY   = 301.8996

EPHEMERIS_TYPE = 0
CLASSIFICATION_TYPE = U
NORAD_CAT_ID   = 65986
ELEMENT_SET_NO = 999
REV_AT_EPOCH   = 260
BSTAR          = .19766E-3
MEAN_MOTION_DOT = .234E-5
MEAN_MOTION_DDOT = 0

CCSDS_OMM_VERS = 2.0
CREATION_DATE  = 
ORIGINATOR     = 

OBJECT_NAME    = SDA_1677
OBJECT_ID      = 2025-230P
CENTER_NAME    = EARTH
REF_FRAME      = TEME
TIME_SYSTEM    = UTC
MEAN_ELEMENT_THEORY = SGP/SGP4

EPOCH          = 2025-11-03T17:18:31.686912
MEAN_MOTION    = 13.84660349
ECCENTRICITY   = .0003168
INCLINATION    = 81.2997
RA_OF_ASC_NODE = 60.7979
ARG_OF_PERICENTER = 62.9792
MEAN_ANOMALY   = 297.1688

EPHEMERIS_TYPE = 0
CLASSIFICATION_TYPE = U
NORAD_CAT_ID   = 65987
ELEMENT_SET_NO = 999
REV_AT_EPOCH   = 260
BSTAR          = .22178E-3
MEAN_MOTION_DOT = .261E-5
MEAN_MOTION_DDOT = 0

CCSDS_OMM_VERS = 2.0
CREATION_DATE  = 
ORIGINATOR     = 

OBJECT_NAME    = SDA_1678
OBJECT_ID      = 2025-230Q
CENTER_NAME    = EARTH
REF_FRAME      = TEME
TIME_SYSTEM    = UTC
MEAN_ELEMENT_THEORY = SGP/SGP4

EPOCH          = 2025-11-03T18:46:00.817824
MEAN_MOTION    = 13.85509464
ECCENTRICITY   = .0005011
INCLINATION    = 81.3028
RA_OF_ASC_NODE = 60.7239
ARG_OF_PERICENTER = 111.8570
MEAN_ANOMALY   = 248.3121

EPHEMERIS_TYPE = 0
CLASSIFICATION_TYPE = U
NORAD_CAT_ID   = 65988
ELEMENT_SET_NO = 999
REV_AT_EPOCH   = 261
BSTAR          = .15583E-3
MEAN_MOTION_DOT = .19E-5
MEAN_MOTION_DDOT = 0

CCSDS_OMM_VERS = 2.0
CREATION_DATE  = 
ORIGINATOR     = 

OBJECT_NAME    = SDA_1679
OBJECT_ID      = 2025-230R
CENTER_NAME    = EARTH
REF_FRAME      = TEME
TIME_SYSTEM    = UTC
MEAN_ELEMENT_THEORY = SGP/SGP4

EPOCH          = 2025-11-03T18:49:56.491104
MEAN_MOTION    = 13.85308533
ECCENTRICITY   = .0005155
INCLINATION    = 81.3026
RA_OF_ASC_NODE = 60.7280
ARG_OF_PERICENTER = 100.7215
MEAN_ANOMALY   = 259.4522

EPHEMERIS_TYPE = 0
CLASSIFICATION_TYPE = U
NORAD_CAT_ID   = 65989
ELEMENT_SET_NO = 999
REV_AT_EPOCH   = 261
BSTAR          = .15883E-3
MEAN_MOTION_DOT = .192E-5
MEAN_MOTION_DDOT = 0

