SDA_1668                
1 65978U 25230E   25307.78252590  .00000222  00000+0  18457-3 0  9995
2 65978  81.3013  60.7178 0004967 109.4628 250.7067 13.85467881  2615
SDA_1669                
1 65979U 25230F   25307.78567745  .00000193  00000+0  15920-3 0  9996
2 65979  81.3015  60.7225 0005084  96.9299 263.2437 13.85234431  2619
SDA_1670                
1 65980U 25230G   25307.79141086  .00000225  00000+0  18943-3 0  9999
2 65980  81.2993  60.7268 0003665  71.5985 288.5571 13.84811630  2616
SDA_1671                
1 65981U 25230H   25307.78395528  .00000164  00000+0  13382-3 0  9995
2 65981  81.3019  60.7207 0005023 103.6780 256.4937 13.85361163  2612
SDA_1672                
1 65982U 25230J   25307.78947472  .00000237  00000+0  19896-3 0  9994
2 65982  81.3026  60.7308 0004318  77.0450 283.1189 13.84954487  2619
SDA_1673                
1 65983U 25230K   25307.78135956  .00000213  00000+0  17634-3 0  9993
2 65983  81.3025  60.7216 0005097 114.0041 246.1650 13.85554030  2613
SDA_1674                
1 65984U 25230L   25307.78349758  .00000185  00000+0  15215-3 0  9992
2 65984  81.3016  60.7195 0004968 105.5333 254.6373 13.85395791  2618
SDA_1675                
1 65985U 25230M   25307.72032963  .00000264  00000+0  22390-3 0  9994
2 65985  81.2993  60.7954 0003492  66.3548 293.7975 13.84725067  2601
SDA_1676                
1 65986U 25230N   25307.72236042  .00000234  00000+0  19766-3 0  9999
2 65986  81.3024  60.8036 0002819  58.2435 301.8996 13.84574563  2604
SDA_1677                
1 65987U 25230P   25307.72120008  .00000261  00000+0  22178-3 0  9995
2 65987  81.2997  60.7979 0003168  62.9792 297.1688 13.84660349  2607
SDA_1678                
1 65988U 25230Q   25307.78195391  .00000190  00000+0  15583-3 0  9992
2 65988  81.3028  60.7239 0005011 111.8570 248.3121 13.85509464  2612
SDA_1679                
1 65989U 25230R   25307.78468161  .00000192  00000+0  15883-3 0  9996
2 65989  81.3026  60.7280 0005155 100.7215 259.4522 13.85308533  2611
